FENGYUN 1C DEB          
1 30496U 99025AHJ 17345.84009700  .00000532  00000-0  76659-4 0  9992
2 30496  98.8159 303.3658 0188022 287.8162  70.2609 14.70340451580384
